CCSDS_OMM_VERS = 2.0
CREATION_DATE  = 
ORIGINATOR     = 

OBJECT_NAME    = STARLINK-36489
OBJECT_ID      = 2026-002Z
CENTER_NAME    = EARTH
REF_FRAME      = TEME
TIME_SYSTEM    = UTC
MEAN_ELEMENT_THEORY = SGP/SGP4

EPOCH          = 2026-02-02T02:01:21.506880
MEAN_MOTION    = 15.50596640
ECCENTRICITY   = .00005813
INCLINATION    = 42.9961
RA_OF_ASC_NODE = 167.2031
ARG_OF_PERICENTER = 328.0924
MEAN_ANOMALY   = 31.9901

EPHEMERIS_TYPE = 0
CLASSIFICATION_TYPE = U
NORAD_CAT_ID   = 67328
ELEMENT_SET_NO = 999
REV_AT_EPOCH   = 578
BSTAR          = .10392745E-2
MEAN_MOTION_DOT = .61143E-3
MEAN_MOTION_DDOT = 0

CCSDS_OMM_VERS = 2.0
CREATION_DATE  = 
ORIGINATOR     = 

OBJECT_NAME    = STARLINK-36496
OBJECT_ID      = 2026-002AA
CENTER_NAME    = EARTH
REF_FRAME      = TEME
TIME_SYSTEM    = UTC
MEAN_ELEMENT_THEORY = SGP/SGP4

EPOCH          = 2026-02-01T18:16:33.821184
MEAN_MOTION    = 15.50632965
ECCENTRICITY   = .00023674
INCLINATION    = 43.0012
RA_OF_ASC_NODE = 169.0797
ARG_OF_PERICENTER = 283.7581
MEAN_ANOMALY   = 76.3016

EPHEMERIS_TYPE = 0
CLASSIFICATION_TYPE = U
NORAD_CAT_ID   = 67329
ELEMENT_SET_NO = 999
REV_AT_EPOCH   = 555
BSTAR          = .15271878E-2
MEAN_MOTION_DOT = .90471E-3
MEAN_MOTION_DDOT = 0

CCSDS_OMM_VERS = 2.0
CREATION_DATE  = 
ORIGINATOR     = 

OBJECT_NAME    = STARLINK-36483
OBJECT_ID      = 2026-002AB
CENTER_NAME    = EARTH
REF_FRAME      = TEME
TIME_SYSTEM    = UTC
MEAN_ELEMENT_THEORY = SGP/SGP4

EPOCH          = 2026-02-01T16:42:48.936672
MEAN_MOTION    = 15.50642375
ECCENTRICITY   = .00045246
INCLINATION    = 43.0063
RA_OF_ASC_NODE = 169.4523
ARG_OF_PERICENTER = 285.5476
MEAN_ANOMALY   = 74.4884

EPHEMERIS_TYPE = 0
CLASSIFICATION_TYPE = U
NORAD_CAT_ID   = 67330
ELEMENT_SET_NO = 999
REV_AT_EPOCH   = 572
BSTAR          = .11609726E-2
MEAN_MOTION_DOT = .6854E-3
MEAN_MOTION_DDOT = 0

CCSDS_OMM_VERS = 2.0
CREATION_DATE  = 
ORIGINATOR     = 

OBJECT_NAME    = STARLINK-36494
OBJECT_ID      = 2026-002AC
CENTER_NAME    = EARTH
REF_FRAME      = TEME
TIME_SYSTEM    = UTC
MEAN_ELEMENT_THEORY = SGP/SGP4

EPOCH          = 2026-02-02T02:00:51.452640
MEAN_MOTION    = 15.50606685
ECCENTRICITY   = .00014191
INCLINATION    = 42.9999
RA_OF_ASC_NODE = 167.1987
ARG_OF_PERICENTER = 290.2257
MEAN_ANOMALY   = 69.8450

EPHEMERIS_TYPE = 0
CLASSIFICATION_TYPE = U
NORAD_CAT_ID   = 67331
ELEMENT_SET_NO = 999
REV_AT_EPOCH   = 578
BSTAR          = .14161902E-2
MEAN_MOTION_DOT = .83715E-3
MEAN_MOTION_DDOT = 0

CCSDS_OMM_VERS = 2.0
CREATION_DATE  = 
ORIGINATOR     = 

OBJECT_NAME    = STARLINK-36492
OBJECT_ID      = 2026-002AD
CENTER_NAME    = EARTH
REF_FRAME      = TEME
TIME_SYSTEM    = UTC
MEAN_ELEMENT_THEORY = SGP/SGP4

EPOCH          = 2026-02-01T18:16:04.871136
MEAN_MOTION    = 15.50480792
ECCENTRICITY   = .00037615
INCLINATION    = 42.9999
RA_OF_ASC_NODE = 169.0758
ARG_OF_PERICENTER = 265.7035
MEAN_ANOMALY   = 94.3395

EPHEMERIS_TYPE = 0
CLASSIFICATION_TYPE = U
NORAD_CAT_ID   = 67332
ELEMENT_SET_NO = 999
REV_AT_EPOCH   = 573
BSTAR          = -.29727152E-3
MEAN_MOTION_DOT = -.17687E-3
MEAN_MOTION_DDOT = 0

CCSDS_OMM_VERS = 2.0
CREATION_DATE  = 
ORIGINATOR     = 

OBJECT_NAME    = STARLINK-36427
OBJECT_ID      = 2026-002AE
CENTER_NAME    = EARTH
REF_FRAME      = TEME
TIME_SYSTEM    = UTC
MEAN_ELEMENT_THEORY = SGP/SGP4

EPOCH          = 2026-02-02T06:00:02.000160
MEAN_MOTION    = 15.40643933
ECCENTRICITY   = .00016158
INCLINATION    = 43.0013
RA_OF_ASC_NODE = 166.5566
ARG_OF_PERICENTER = 263.5545
MEAN_ANOMALY   = 161.3187

EPHEMERIS_TYPE = 0
CLASSIFICATION_TYPE = U
NORAD_CAT_ID   = 67333
ELEMENT_SET_NO = 999
REV_AT_EPOCH   = 578
BSTAR          = .15362265E-2
MEAN_MOTION_DOT = .64291E-3
MEAN_MOTION_DDOT = 0

CCSDS_OMM_VERS = 2.0
CREATION_DATE  = 
ORIGINATOR     = 

OBJECT_NAME    = STARLINK-35343
OBJECT_ID      = 2026-003A
CENTER_NAME    = EARTH
REF_FRAME      = TEME
TIME_SYSTEM    = UTC
MEAN_ELEMENT_THEORY = SGP/SGP4

EPOCH          = 2026-02-02T06:00:02.000160
MEAN_MOTION    = 15.50609215
ECCENTRICITY   = .00015625
INCLINATION    = 42.9994
RA_OF_ASC_NODE = 68.8236
ARG_OF_PERICENTER = 267.1893
MEAN_ANOMALY   = 154.8802

EPHEMERIS_TYPE = 0
CLASSIFICATION_TYPE = U
NORAD_CAT_ID   = 67334
ELEMENT_SET_NO = 999
REV_AT_EPOCH   = 492
BSTAR          = -.6826924E-3
MEAN_MOTION_DOT = -.4023E-3
MEAN_MOTION_DDOT = 0

CCSDS_OMM_VERS = 2.0
CREATION_DATE  = 
ORIGINATOR     = 

OBJECT_NAME    = STARLINK-36486
OBJECT_ID      = 2026-003B
CENTER_NAME    = EARTH
REF_FRAME      = TEME
TIME_SYSTEM    = UTC
MEAN_ELEMENT_THEORY = SGP/SGP4

EPOCH          = 2026-02-02T06:00:02.000160
MEAN_MOTION    = 15.50558166
ECCENTRICITY   = .00016126
INCLINATION    = 42.9992
RA_OF_ASC_NODE = 68.8186
ARG_OF_PERICENTER = 263.1128
MEAN_ANOMALY   = 160.8725

EPHEMERIS_TYPE = 0
CLASSIFICATION_TYPE = U
NORAD_CAT_ID   = 67335
ELEMENT_SET_NO = 999
REV_AT_EPOCH   = 497
BSTAR          = .11860844E-2
MEAN_MOTION_DOT = .69812E-3
MEAN_MOTION_DDOT = 0

CCSDS_OMM_VERS = 2.0
CREATION_DATE  = 
ORIGINATOR     = 

OBJECT_NAME    = STARLINK-36480
OBJECT_ID      = 2026-003C
CENTER_NAME    = EARTH
REF_FRAME      = TEME
TIME_SYSTEM    = UTC
MEAN_ELEMENT_THEORY = SGP/SGP4

EPOCH          = 2026-02-02T06:00:02.000160
MEAN_MOTION    = 15.50633619
ECCENTRICITY   = .00017795
INCLINATION    = 42.9993
RA_OF_ASC_NODE = 68.8140
ARG_OF_PERICENTER = 265.0793
MEAN_ANOMALY   = 160.8331

EPHEMERIS_TYPE = 0
CLASSIFICATION_TYPE = U
NORAD_CAT_ID   = 67336
ELEMENT_SET_NO = 999
REV_AT_EPOCH   = 497
BSTAR          = -.16934669E-2
MEAN_MOTION_DOT = -.98642E-3
MEAN_MOTION_DDOT = 0

CCSDS_OMM_VERS = 2.0
CREATION_DATE  = 
ORIGINATOR     = 

OBJECT_NAME    = STARLINK-36410
OBJECT_ID      = 2026-003D
CENTER_NAME    = EARTH
REF_FRAME      = TEME
TIME_SYSTEM    = UTC
MEAN_ELEMENT_THEORY = SGP/SGP4

EPOCH          = 2026-02-02T06:00:02.000160
MEAN_MOTION    = 15.50631841
ECCENTRICITY   = .00016916
INCLINATION    = 42.9994
RA_OF_ASC_NODE = 68.8089
ARG_OF_PERICENTER = 259.9698
MEAN_ANOMALY   = 167.8627

EPHEMERIS_TYPE = 0
CLASSIFICATION_TYPE = U
NORAD_CAT_ID   = 67337
ELEMENT_SET_NO = 999
REV_AT_EPOCH   = 497
BSTAR          = -.16704143E-2
MEAN_MOTION_DOT = -.97313E-3
MEAN_MOTION_DDOT = 0

CCSDS_OMM_VERS = 2.0
CREATION_DATE  = 
ORIGINATOR     = 

OBJECT_NAME    = STARLINK-36413
OBJECT_ID      = 2026-003E
CENTER_NAME    = EARTH
REF_FRAME      = TEME
TIME_SYSTEM    = UTC
MEAN_ELEMENT_THEORY = SGP/SGP4

EPOCH          = 2026-02-02T06:00:02.000160
MEAN_MOTION    = 15.50559823
ECCENTRICITY   = .00015996
INCLINATION    = 42.9993
RA_OF_ASC_NODE = 68.8044
ARG_OF_PERICENTER = 263.7745
MEAN_ANOMALY   = 165.9375

EPHEMERIS_TYPE = 0
CLASSIFICATION_TYPE = U
NORAD_CAT_ID   = 67338
ELEMENT_SET_NO = 999
REV_AT_EPOCH   = 497
BSTAR          = .11879405E-2
MEAN_MOTION_DOT = .69927E-3
MEAN_MOTION_DDOT = 0

CCSDS_OMM_VERS = 2.0
CREATION_DATE  = 
ORIGINATOR     = 

OBJECT_NAME    = STARLINK-36451
OBJECT_ID      = 2026-003F
CENTER_NAME    = EARTH
REF_FRAME      = TEME
TIME_SYSTEM    = UTC
MEAN_ELEMENT_THEORY = SGP/SGP4

EPOCH          = 2026-02-02T06:00:02.000160
MEAN_MOTION    = 15.50624794
ECCENTRICITY   = .00017764
INCLINATION    = 42.9993
RA_OF_ASC_NODE = 68.7999
ARG_OF_PERICENTER = 266.2469
MEAN_ANOMALY   = 165.4093

EPHEMERIS_TYPE = 0
CLASSIFICATION_TYPE = U
NORAD_CAT_ID   = 67339
ELEMENT_SET_NO = 999
REV_AT_EPOCH   = 497
BSTAR          = -.13749866E-2
MEAN_MOTION_DOT = -.80316E-3
MEAN_MOTION_DDOT = 0

