STARLINK-36489          
1 67328U 26002Z   26033.08427670  .00061143  00000+0  10393-2 0  9996
2 67328  42.9961 167.2031 0000581 328.0924  31.9901 15.50596640  5785
STARLINK-36496          
1 67329U 26002AA  26032.76150256  .00090471  00000+0  15272-2 0  9991
2 67329  43.0012 169.0797 0002367 283.7581  76.3016 15.50632965  5550
STARLINK-36483          
1 67330U 26002AB  26032.69639973  .00068540  00000+0  11610-2 0  9997
2 67330  43.0063 169.4523 0004524 285.5476  74.4884 15.50642375  5726
STARLINK-36494          
1 67331U 26002AC  26033.08392885  .00083715  00000+0  14162-2 0  9996
2 67331  42.9999 167.1987 0001419 290.2257  69.8450 15.50606685  5789
STARLINK-36492          
1 67332U 26002AD  26032.76116749 -.00017687  00000+0 -29727-3 0  9995
2 67332  42.9999 169.0758 0003761 265.7035  94.3395 15.50480792  5735
STARLINK-36427          
1 67333U 26002AE  26033.25002315  .00064291  00000+0  15362-2 0  9994
2 67333  43.0013 166.5566 0001615 263.5545 161.3187 15.40643933  5788
STARLINK-35343          
1 67334U 26003A   26033.25002315 -.00040230  00000+0 -68269-3 0  9990
2 67334  42.9994  68.8236 0001562 267.1893 154.8802 15.50609215  4922
STARLINK-36486          
1 67335U 26003B   26033.25002315  .00069812  00000+0  11861-2 0  9991
2 67335  42.9992  68.8186 0001612 263.1128 160.8725 15.50558166  4972
STARLINK-36480          
1 67336U 26003C   26033.25002315 -.00098642  00000+0 -16935-2 0  9994
2 67336  42.9993  68.8140 0001779 265.0793 160.8331 15.50633619  4977
STARLINK-36410          
1 67337U 26003D   26033.25002315 -.00097313  00000+0 -16704-2 0  9993
2 67337  42.9994  68.8089 0001691 259.9698 167.8627 15.50631841  4970
STARLINK-36413          
1 67338U 26003E   26033.25002315  .00069927  00000+0  11879-2 0  9990
2 67338  42.9993  68.8044 0001599 263.7745 165.9375 15.50559823  4972
STARLINK-36451          
1 67339U 26003F   26033.25002315 -.00080316  00000+0 -13750-2 0  9998
2 67339  42.9993  68.7999 0001776 266.2469 165.4093 15.50624794  4971
